[{"OBJECT_NAME":"STARLINK-4710","OBJECT_ID":"2022-111AC","EPOCH":"2026-03-09T19:27:39.444480","MEAN_MOTION":15.08840113,"ECCENTRICITY":0.00013588,"INCLINATION":53.2169,"RA_OF_ASC_NODE":263.6492,"ARG_OF_PERICENTER":88.0615,"MEAN_ANOMALY":272.0532,"EPHEMERIS_TYPE":0,"CLASSIFICATION_TYPE":"U","NORAD_CAT_ID":53799,"ELEMENT_SET_NO":999,"REV_AT_EPOCH":19383,"BSTAR":5.171456e-5,"MEAN_MOTION_DOT":5.35e-6,"MEAN_MOTION_DDOT":0},{"OBJECT_NAME":"RAAF M1","OBJECT_ID":"2018-099X","EPOCH":"2026-03-09T15:51:10.230048","MEAN_MOTION":15.07065376,"ECCENTRICITY":0.00134971,"INCLINATION":97.4534,"RA_OF_ASC_NODE":114.8325,"ARG_OF_PERICENTER":21.6261,"MEAN_ANOMALY":338.5534,"EPHEMERIS_TYPE":0,"CLASSIFICATION_TYPE":"U","NORAD_CAT_ID":43779,"ELEMENT_SET_NO":999,"REV_AT_EPOCH":39714,"BSTAR":0.00026511092,"MEAN_MOTION_DOT":3.923e-5,"MEAN_MOTION_DDOT":0}]
